[
    {
        "Altitude(m)": 617710.6671892803,
        "Argument of Periapsis(deg)": 0.0,
        "Eccentricity": 0.0,
        "Inclination(deg)": 60.0,
        "Latitude(deg)": -41.10273466674784,
        "Longitude(deg)": 4.96675195015649,
        "Mean Anomaly(deg)": -49.09089999999994,
        "RAAN(deg)": 135.0,
        "Satellite Name": "Test1 613",
        "Satellite Number": 613,
        "Semi-Major Axis(m)": 6980739.136638005,
        "Time(s)": 0
    },
    {
        "Altitude(m)": 617517.965166051,
        "Argument of Periapsis(deg)": 0.00010418945913296404,
        "Eccentricity": 0.0,
        "Inclination(deg)": 60.0,
        "Latitude(deg)": -40.63694040537726,
        "Longitude(deg)": 5.463544116426875,
        "Mean Anomaly(deg)": -48.470793854538094,
        "RAAN(deg)": 134.99957995086024,
        "Satellite Name": "Test1 613",
        "Satellite Number": 613,
        "Semi-Major Axis(m)": 6980739.136638005,
        "Time(s)": 10
    }
]